{"type": "FeatureCollection", "features": [ {"type": "Feature", "properties": {"norad_id": 66529, "name": "STARLINK-35933", "group": "last-30-days", "lat": 31.83455170068054, "lon": 151.31625467447694, "alt_km": 340.4495055533762, "timestamp": "2025-12-03T08:58:44.777997+00:00", "meta": {"OBJECT_NAME": "STARLINK-35933", "OBJECT_ID": "2025-265P", "EPOCH": "2025-12-03T04:00:01.998720", "MEAN_MOTION": 15.7495966, "ECCENTRICITY": 0.0001799, "INCLINATION": 42.9997, "RA_OF_ASC_NODE": 110.7939, "ARG_OF_PERICENTER": 275.7004, "MEAN_ANOMALY": 37.4281, "EPHEMERIS_TYPE": 0, "CLASSIFICATION_TYPE": "U", "NORAD_CAT_ID": 66529, "ELEMENT_SET_NO": 999, "REV_AT_EPOCH": 345, "BSTAR": 0.00026372, "MEAN_MOTION_DOT": 0.00040085, "MEAN_MOTION_DDOT": 0}, "tle": {"line1": "1 66529U 25265P   25337.16668980  .00040085  00000+0  26372-3 0  9991", "line2": "2 66529  42.9997 110.7939 0001799 275.7004  37.4281 15.74959660  3450"}}, "geometry": {"type": "Point", "coordinates": [151.31625467447694, 31.83455170068054]}}, {"type": "Feature", "properties": {"norad_id": 66530, "name": "STARLINK-35961", "group": "last-30-days", "lat": 32.75825166628209, "lon": 153.19999924412403, "alt_km": 340.1490421237586, "timestamp": "2025-12-03T08:58:44.778008+00:00", "meta": {"OBJECT_NAME": "STARLINK-35961", "OBJECT_ID": "2025-265Q", "EPOCH": "2025-12-03T04:00:01.998720", "MEAN_MOTION": 15.75066266, "ECCENTRICITY": 0.0001632, "INCLINATION": 42.9999, "RA_OF_ASC_NODE": 110.7895, "ARG_OF_PERICENTER": 266.0375, "MEAN_ANOMALY": 48.8687, "EPHEMERIS_TYPE": 0, "CLASSIFICATION_TYPE": "U", "NORAD_CAT_ID": 66530, "ELEMENT_SET_NO": 999, "REV_AT_EPOCH": 345, "BSTAR": -0.00021592, "MEAN_MOTION_DOT": -0.00033553, "MEAN_MOTION_DDOT": 0}, "tle": {"line1": "1 66530U 25265Q   25337.16668980 -.00033553  00000+0 -21592-3 0  9996", "line2": "2 66530  42.9999 110.7895 0001632 266.0375  48.8687 15.75066266  3453"}}, "geometry": {"type": "Point", "coordinates": [153.19999924412403, 32.75825166628209]}}, {"type": "Feature", "properties": {"norad_id": 66531, "name": "STARLINK-35960", "group": "last-30-days", "lat": 33.6854835283051, "lon": 155.19452808801023, "alt_km": 340.04079189422555, "timestamp": "2025-12-03T08:58:44.778018+00:00", "meta": {"OBJECT_NAME": "STARLINK-35960", "OBJECT_ID": "2025-265R", "EPOCH": "2025-12-03T04:00:01.998720", "MEAN_MOTION": 15.75056024, "ECCENTRICITY": 0.0001658, "INCLINATION": 42.9998, "RA_OF_ASC_NODE": 110.7843, "ARG_OF_PERICENTER": 262.3109, "MEAN_ANOMALY": 54.5069, "EPHEMERIS_TYPE": 0, "CLASSIFICATION_TYPE": "U", "NORAD_CAT_ID": 66531, "ELEMENT_SET_NO": 999, "REV_AT_EPOCH": 345, "BSTAR": 0.00011468, "MEAN_MOTION_DOT": 0.00017187, "MEAN_MOTION_DDOT": 0}, "tle": {"line1": "1 66531U 25265R   25337.16668980  .00017187  00000+0  11468-3 0  9991", "line2": "2 66531  42.9998 110.7843 0001658 262.3109  54.5069 15.75056024  3457"}}, "geometry": {"type": "Point", "coordinates": [155.19452808801023, 33.6854835283051]}}, {"type": "Feature", "properties": {"norad_id": 66532, "name": "STARLINK-35914", "group": "last-30-days", "lat": 34.584718206321945, "lon": 157.24402210835612, "alt_km": 339.9587782783092, "timestamp": "2025-12-03T08:58:44.778028+00:00", "meta": {"OBJECT_NAME": "STARLINK-35914", "OBJECT_ID": "2025-265S", "EPOCH": "2025-12-03T04:00:01.998720", "MEAN_MOTION": 15.75066443, "ECCENTRICITY": 0.0001794, "INCLINATION": 42.9997, "RA_OF_ASC_NODE": 110.7797, "ARG_OF_PERICENTER": 264.0659, "MEAN_ANOMALY": 54.6658, "EPHEMERIS_TYPE": 0, "CLASSIFICATION_TYPE": "U", "NORAD_CAT_ID": 66532, "ELEMENT_SET_NO": 999, "REV_AT_EPOCH": 345, "BSTAR": 5.4243e-05, "MEAN_MOTION_DOT": 7.872e-05, "MEAN_MOTION_DDOT": 0}, "tle": {"line1": "1 66532U 25265S   25337.16668980  .00007872  00000+0  54243-4 0  9991", "line2": "2 66532  42.9997 110.7797 0001794 264.0659  54.6658 15.75066443  3456"}}, "geometry": {"type": "Point", "coordinates": [157.24402210835612, 34.584718206321945]}}, {"type": "Feature", "properties": {"norad_id": 66533, "name": "STARLINK-35707", "group": "last-30-days", "lat": 35.44664562882287, "lon": 159.33141647203627, "alt_km": 339.7339481666413, "timestamp": "2025-12-03T08:58:44.778038+00:00", "meta": {"OBJECT_NAME": "STARLINK-35707", "OBJECT_ID": "2025-265T", "EPOCH": "2025-12-03T04:00:01.998720", "MEAN_MOTION": 15.75049587, "ECCENTRICITY": 0.0001642, "INCLINATION": 42.9999, "RA_OF_ASC_NODE": 110.775, "ARG_OF_PERICENTER": 269.0424, "MEAN_ANOMALY": 51.6155, "EPHEMERIS_TYPE": 0, "CLASSIFICATION_TYPE": "U", "NORAD_CAT_ID": 66533, "ELEMENT_SET_NO": 999, "REV_AT_EPOCH": 345, "BSTAR": 0.00013778, "MEAN_MOTION_DOT": 0.00020748, "MEAN_MOTION_DDOT": 0}, "tle": {"line1": "1 66533U 25265T   25337.16668980  .00020748  00000+0  13778-3 0  9996", "line2": "2 66533  42.9999 110.7750 0001642 269.0424  51.6155 15.75049587  3454"}}, "geometry": {"type": "Point", "coordinates": [159.33141647203627, 35.44664562882287]}}, {"type": "Feature", "properties": {"norad_id": 66534, "name": "STARLINK-35976", "group": "last-30-days", "lat": 36.27216260360347, "lon": 161.4645402840915, "alt_km": 339.8572651783361, "timestamp": "2025-12-03T08:58:44.778050+00:00", "meta": {"OBJECT_NAME": "STARLINK-35976", "OBJECT_ID": "2025-265U", "EPOCH": "2025-12-03T04:00:01.998720", "MEAN_MOTION": 15.75072333, "ECCENTRICITY": 0.0001869, "INCLINATION": 43.0001, "RA_OF_ASC_NODE": 110.7706, "ARG_OF_PERICENTER": 251.0592, "MEAN_ANOMALY": 71.5072, "EPHEMERIS_TYPE": 0, "CLASSIFICATION_TYPE": "U", "NORAD_CAT_ID": 66534, "ELEMENT_SET_NO": 999, "REV_AT_EPOCH": 345, "BSTAR": -9.6629e-06, "MEAN_MOTION_DOT": -1.964e-05, "MEAN_MOTION_DDOT": 0}, "tle": {"line1": "1 66534U 25265U   25337.16668980 -.00001964  00000+0 -96629-5 0  9996", "line2": "2 66534  43.0001 110.7706 0001869 251.0592  71.5072 15.75072333  3454"}}, "geometry": {"type": "Point", "coordinates": [161.4645402840915, 36.27216260360347]}}, {"type": "Feature", "properties": {"norad_id": 66535, "name": "STARLINK-35514", "group": "last-30-days", "lat": 37.059421600211714, "lon": 163.6443812062468, "alt_km": 339.5612307400834, "timestamp": "2025-12-03T08:58:44.778061+00:00", "meta": {"OBJECT_NAME": "STARLINK-35514", "OBJECT_ID": "2025-265V", "EPOCH": "2025-12-03T04:00:01.998720", "MEAN_MOTION": 15.75057374, "ECCENTRICITY": 0.0001696, "INCLINATION": 43, "RA_OF_ASC_NODE": 110.7658, "ARG_OF_PERICENTER": 268.036, "MEAN_ANOMALY": 56.456, "EPHEMERIS_TYPE": 0, "CLASSIFICATION_TYPE": "U", "NORAD_CAT_ID": 66535, "ELEMENT_SET_NO": 999, "REV_AT_EPOCH": 345, "BSTAR": -1.8668e-05, "MEAN_MOTION_DOT": -3.347e-05, "MEAN_MOTION_DDOT": 0}, "tle": {"line1": "1 66535U 25265V   25337.16668980 -.00003347  00000+0 -18668-4 0  9990", "line2": "2 66535  43.0000 110.7658 0001696 268.0360  56.4560 15.75057374  3451"}}, "geometry": {"type": "Point", "coordinates": [163.6443812062468, 37.059421600211714]}}, {"type": "Feature", "properties": {"norad_id": 66536, "name": "STARLINK-35640", "group": "last-30-days", "lat": 37.80461635670109, "lon": 165.86550237253235, "alt_km": 339.42084852572225, "timestamp": "2025-12-03T08:58:44.778074+00:00", "meta": {"OBJECT_NAME": "STARLINK-35640", "OBJECT_ID": "2025-265W", "EPOCH": "2025-12-03T04:00:01.998720", "MEAN_MOTION": 15.75087628, "ECCENTRICITY": 0.0001653, "INCLINATION": 42.9998, "RA_OF_ASC_NODE": 110.7611, "ARG_OF_PERICENTER": 266.4957, "MEAN_ANOMALY": 59.8984, "EPHEMERIS_TYPE": 0, "CLASSIFICATION_TYPE": "U", "NORAD_CAT_ID": 66536, "ELEMENT_SET_NO": 999, "REV_AT_EPOCH": 343, "BSTAR": -0.00035135, "MEAN_MOTION_DOT": -0.00054218, "MEAN_MOTION_DDOT": 0}, "tle": {"line1": "1 66536U 25265W   25337.16668980 -.00054218  00000+0 -35135-3 0  9991", "line2": "2 66536  42.9998 110.7611 0001653 266.4957  59.8984 15.75087628  3432"}}, "geometry": {"type": "Point", "coordinates": [165.86550237253235, 37.80461635670109]}}, {"type": "Feature", "properties": {"norad_id": 66537, "name": "STARLINK-35582", "group": "last-30-days", "lat": 38.50751921561766, "lon": 168.13012530742947, "alt_km": 339.33907540563905, "timestamp": "2025-12-03T08:58:44.778084+00:00", "meta": {"OBJECT_NAME": "STARLINK-35582", "OBJECT_ID": "2025-265X", "EPOCH": "2025-12-03T04:00:01.998720", "MEAN_MOTION": 15.75082513, "ECCENTRICITY": 0.0001681, "INCLINATION": 43.0001, "RA_OF_ASC_NODE": 110.756, "ARG_OF_PERICENTER": 264.5024, "MEAN_ANOMALY": 63.8082, "EPHEMERIS_TYPE": 0, "CLASSIFICATION_TYPE": "U", "NORAD_CAT_ID": 66537, "ELEMENT_SET_NO": 999, "REV_AT_EPOCH": 345, "BSTAR": -0.00018023, "MEAN_MOTION_DOT": -0.00028123, "MEAN_MOTION_DDOT": 0}, "tle": {"line1": "1 66537U 25265X   25337.16668980 -.00028123  00000+0 -18023-3 0  9995", "line2": "2 66537  43.0001 110.7560 0001681 264.5024  63.8082 15.75082513  3452"}}, "geometry": {"type": "Point", "coordinates": [168.13012530742947, 38.50751921561766]}}, {"type": "Feature", "properties": {"norad_id": 66538, "name": "STARLINK-35577", "group": "last-30-days", "lat": 39.16575485600899, "lon": 170.43885773327918, "alt_km": 339.2617331050096, "timestamp": "2025-12-03T08:58:44.778094+00:00", "meta": {"OBJECT_NAME": "STARLINK-35577", "OBJECT_ID": "2025-265Y", "EPOCH": "2025-12-03T04:00:01.998720", "MEAN_MOTION": 15.75066546, "ECCENTRICITY": 0.0001677, "INCLINATION": 43.0001, "RA_OF_ASC_NODE": 110.7507, "ARG_OF_PERICENTER": 266.7489, "MEAN_ANOMALY": 63.488, "EPHEMERIS_TYPE": 0, "CLASSIFICATION_TYPE": "U", "NORAD_CAT_ID": 66538, "ELEMENT_SET_NO": 999, "REV_AT_EPOCH": 345, "BSTAR": -0.00010161, "MEAN_MOTION_DOT": -0.00016076, "MEAN_MOTION_DDOT": 0}, "tle": {"line1": "1 66538U 25265Y   25337.16668980 -.00016076  00000+0 -10161-3 0  9995", "line2": "2 66538  43.0001 110.7507 0001677 266.7489  63.4880 15.75066546  3458"}}, "geometry": {"type": "Point", "coordinates": [170.43885773327918, 39.16575485600899]}}]}